OBJECT_NAME,OBJECT_ID,EPOCH,MEAN_MOTION,ECCENTRICITY,INCLINATION,RA_OF_ASC_NODE,ARG_OF_PERICENTER,MEAN_ANOMALY,EPHEMERIS_TYPE,CLASSIFICATION_TYPE,NORAD_CAT_ID,ELEMENT_SET_NO,REV_AT_EPOCH,BSTAR,MEAN_MOTION_DOT,MEAN_MOTION_DDOT
GLOBALSTAR M069,2007-020C,2026-06-18T11:41:44.562912,12.23471381,.00023142,52.0023,248.4472,150.6920,222.3322,0,U,31573,999,87896,.29784839E-3,-.6E-6,0
GLOBALSTAR M072,2007-020D,2026-06-18T12:04:17.774400,11.91658343,.00014289,51.9933,96.7421,335.6985,196.1488,0,U,31574,999,87513,-.20085775E-3,-.99E-6,0
GLOBALSTAR M066,2007-048C,2026-06-18T01:40:46.200288,12.30387558,.000551,51.9605,55.3781,45.9123,100.0309,0,U,32265,999,86033,-.37741075E-3,-.139E-5,0
GLOBALSTAR M079,2010-054A,2026-06-18T14:03:12.227616,12.62266106,.00007512,52.0035,104.4123,27.5603,142.6884,0,U,37188,999,72272,.38013904E-4,-.97E-6,0
GLOBALSTAR M074,2010-054B,2026-06-18T12:47:25.744704,12.62268399,.0000565,52.0011,103.8370,52.2129,119.0464,0,U,37189,999,72332,.12807067E-4,-.101E-5,0
GLOBALSTAR M076,2010-054C,2026-06-18T13:25:17.333760,12.62261834,.00007609,52.0023,103.9603,45.0201,125.8107,0,U,37190,999,72304,.10261336E-4,-.102E-5,0
GLOBALSTAR M077,2010-054D,2026-06-18T12:27:08.955360,11.67547804,.00027057,51.9919,175.9158,174.8445,358.2413,0,U,37191,999,72129,-.27208716E-3,-.93E-6,0
GLOBALSTAR M075,2010-054E,2026-06-18T15:37:56.101728,12.62267354,.00002082,51.9923,145.7340,23.5628,145.9953,0,U,37192,999,72212,-.90477771E-4,-.12E-5,0
GLOBALSTAR M073,2010-054F,2026-06-18T09:56:46.500576,12.62266509,.00009564,52.0068,60.5565,50.6685,120.2585,0,U,37193,999,72408,.16790282E-3,-.74E-6,0
GLOBALSTAR M083,2011-033A,2026-06-18T00:41:59.299584,12.62263147,.00009393,51.9875,9.9569,68.0668,92.7460,0,U,37739,999,69305,.78529896E-4,-.9E-6,0
GLOBALSTAR M088,2011-033B,2026-06-18T14:30:00.631872,12.62268803,.00006731,52.0219,274.6389,129.3822,244.0192,0,U,37740,999,68867,.14870928E-3,-.77E-6,0
GLOBALSTAR M091,2011-033C,2026-06-18T11:00:34.036128,12.62264027,.00002739,51.9989,238.0451,155.7412,217.3661,0,U,37741,999,68944,.11910821E-3,-.82E-6,0
GLOBALSTAR M085,2011-033D,2026-06-18T11:29:20.817024,12.62264172,.00001394,52.0097,189.2762,305.9811,218.0733,0,U,37742,999,68995,-.34698563E-4,-.11E-5,0
GLOBALSTAR M081,2011-033E,2026-06-18T07:31:35.817600,12.62265122,.00001056,51.9932,192.2140,88.4525,284.6275,0,U,37743,999,69008,.9974662E-5,-.102E-5,0
GLOBALSTAR M089,2011-033F,2026-06-18T07:14:07.958400,12.62267245,.00003775,51.9907,146.4083,82.6692,56.1559,0,U,37744,999,69092,-.53441928E-4,-.113E-5,0
GLOBALSTAR M084,2011-080A,2026-06-18T12:36:34.989408,12.62267565,.00010959,52.0027,13.2082,87.8089,288.9928,0,U,38040,999,66893,.36902251E-4,-.97E-6,0
GLOBALSTAR M080,2011-080B,2026-06-18T01:17:25.881792,12.62269456,.00003904,52.0078,16.3625,69.5095,93.1203,0,U,38041,999,66899,.92188326E-4,-.87E-6,0
GLOBALSTAR M082,2011-080C,2026-06-18T10:23:55.438656,12.62263723,.00005216,52.0101,330.7087,100.2463,277.7860,0,U,38042,999,66975,.11304339E-3,-.84E-6,0
GLOBALSTAR M092,2011-080D,2026-06-18T10:34:43.142304,12.62267027,.00007241,52.0095,61.0822,65.0089,106.1365,0,U,38043,999,66820,.91044746E-4,-.87E-6,0
GLOBALSTAR M090,2011-080E,2026-06-18T15:10:22.276992,12.62269061,.00007835,52.0140,324.0591,93.8978,347.5492,0,U,38044,999,66989,.2193313E-4,-.1E-5,0
GLOBALSTAR M086,2011-080F,2026-06-18T11:39:05.622336,12.62286762,.00016924,51.9915,324.4335,69.9314,325.5449,0,U,38045,999,66982,.7811833E-4,-.9E-6,0
GLOBALSTAR M097,2013-005A,2026-06-18T12:13:00.464160,12.62247265,.00002653,52.0038,239.3137,127.5074,232.5817,0,U,39072,999,61707,.83590159E-4,-.89E-6,0
GLOBALSTAR M093,2013-005B,2026-06-18T11:34:24.602016,12.62266006,.00001827,52.0094,232.7418,85.7273,274.3615,0,U,39073,999,61702,.93112661E-4,-.87E-6,0
GLOBALSTAR M094,2013-005C,2026-06-18T09:40:13.765440,12.62268543,.00004436,51.9930,147.0968,6.7292,353.3580,0,U,39074,999,61862,-.11786641E-3,-.125E-5,0
GLOBALSTAR M096,2013-005D,2026-06-18T11:53:40.083648,12.62265690,.00000582,52.0046,195.6185,317.1342,42.9521,0,U,39075,999,61755,-.14038823E-4,-.106E-5,0
GLOBALSTAR M078,2013-005E,2026-06-18T15:02:52.469088,12.62257758,.00005146,51.9885,279.2262,234.3680,125.7138,0,U,39076,999,61619,-.19545752E-3,-.139E-5,0
GLOBALSTAR M095,2013-005F,2026-06-18T13:47:21.583104,12.62263467,.00002065,52.0090,276.9921,131.3200,228.7685,0,U,39077,999,61604,.12244494E-3,-.82E-6,0
GLOBALSTAR M087,2022-064A,2026-06-18T10:18:21.919104,12.62269089,.0000779,52.0011,58.6706,41.3620,318.7305,0,U,52888,999,19129,.8527772E-4,-.88E-6,0
